{
    "CCSDS_OMM_VERS": "3.0",
    "COMMENT": "GENERATED VIA SPACE-TRACK.ORG API",
    "CREATION_DATE": "2025-11-23T23:06:32",
    "ORIGINATOR": "18 SPCS",
    "OBJECT_NAME": "BEIDOU 3M20",
    "OBJECT_ID": "2019-090B",
    "CENTER_NAME": "EARTH",
    "REF_FRAME": "TEME",
    "TIME_SYSTEM": "UTC",
    "MEAN_ELEMENT_THEORY": "SGP4",
    "EPOCH": "2025-11-23T16:21:58.204224",
    "MEAN_MOTION": "1.86231503",
    "ECCENTRICITY": "0.00143440",
    "INCLINATION": "56.3782",
    "RA_OF_ASC_NODE": "69.6286",
    "ARG_OF_PERICENTER": "297.2251",
    "MEAN_ANOMALY": "65.5789",
    "EPHEMERIS_TYPE": "0",
    "CLASSIFICATION_TYPE": "U",
    "NORAD_CAT_ID": "44865",
    "ELEMENT_SET_NO": "999",
    "REV_AT_EPOCH": "4039",
    "BSTAR": "0.00000000000000",
    "MEAN_MOTION_DOT": "-0.00000025",
    "MEAN_MOTION_DDOT": "0.0000000000000",
    "SEMIMAJOR_AXIS": "27906.138",
    "PERIOD": "773.231",
    "APOAPSIS": "21568.032",
    "PERIAPSIS": "21487.975",
    "OBJECT_TYPE": "PAYLOAD",
    "RCS_SIZE": "LARGE",
    "COUNTRY_CODE": "PRC",
    "LAUNCH_DATE": "2019-12-16",
    "SITE": "XSC",
    "DECAY_DATE": null,
    "FILE": "4896403",
    "GP_ID": "303353899",
    "TLE_LINE0": "0 BEIDOU 3M20",
    "TLE_LINE1": "1 44865U 19090B   25327.68192366 -.00000025  00000-0  00000+0 0  9993",
    "TLE_LINE2": "2 44865  56.3782  69.6286 0014344 297.2251  65.5789  1.86231503 40396"
}